{
  "type": "FeatureCollection",
  "features": [
    {
      "type": "Feature",
      "properties": {
        "norad_id": 30516,
        "name": "FENGYUN 1C DEB",
        "group": "fengyun-1c-debris",
        "lat": -5.507012264660475,
        "lon": 98.31808792494691,
        "alt_km": 756.6246759779278,
        "timestamp": "2025-12-19T04:59:48.583007+00:00",
        "meta_object_name": "FENGYUN 1C DEB",
        "meta_object_id": "1999-025AJE",
        "meta_epoch": "2025-12-18T05:50:17.818656",
        "meta_mean_motion": 14.41412972,
        "meta_eccentricity": 0.00096427,
        "meta_inclination": 98.8572,
        "meta_ra_of_asc_node": 96.4569,
        "meta_arg_of_pericenter": 274.0413,
        "meta_mean_anomaly": 116.0867,
        "meta_ephemeris_type": 0,
        "meta_classification_type": "U",
        "meta_norad_cat_id": 30516,
        "meta_element_set_no": 999,
        "meta_rev_at_epoch": 97794,
        "meta_bstar": 0.0017773306,
        "meta_mean_motion_dot": 5.721e-05,
        "meta_mean_motion_ddot": 0,
        "tle_line1": "1 30516U 99025AJE 25352.24326179  .00005721  00000+0  17773-2 0  9992",
        "tle_line2": "2 30516  98.8572  96.4569 0009642 274.0413 116.0867 14.41412972977947"
      },
      "geometry": {
        "type": "Point",
        "coordinates": [
          98.31808792494691,
          -5.507012264660475
        ]
      }
    },
    {
      "type": "Feature",
      "properties": {
        "norad_id": 30520,
        "name": "FENGYUN 1C DEB",
        "group": "fengyun-1c-debris",
        "lat": 10.184091450430758,
        "lon": 165.36882761541904,
        "alt_km": 506.1796654609134,
        "timestamp": "2025-12-19T04:59:48.583017+00:00",
        "meta_object_name": "FENGYUN 1C DEB",
        "meta_object_id": "1999-025AJJ",
        "meta_epoch": "2025-12-18T11:30:25.839072",
        "meta_mean_motion": 15.14289033,
        "meta_eccentricity": 0.00702738,
        "meta_inclination": 98.7179,
        "meta_ra_of_asc_node": 166.1145,
        "meta_arg_of_pericenter": 80.8003,
        "meta_mean_anomaly": 280.1165,
        "meta_ephemeris_type": 0,
        "meta_classification_type": "U",
        "meta_norad_cat_id": 30520,
        "meta_element_set_no": 999,
        "meta_rev_at_epoch": 1128,
        "meta_bstar": 0.00084696771,
        "meta_mean_motion_dot": 0.00016425,
        "meta_mean_motion_ddot": 0,
        "tle_line1": "1 30520U 99025AJJ 25352.47946573  .00016425  00000+0  84697-3 0  9991",
        "tle_line2": "2 30520  98.7179 166.1145 0070273  80.8003 280.1165 15.14289033 11286"
      },
      "geometry": {
        "type": "Point",
        "coordinates": [
          165.36882761541904,
          10.184091450430758
        ]
      }
    },
    {
      "type": "Feature",
      "properties": {
        "norad_id": 30521,
        "name": "FENGYUN 1C DEB",
        "group": "fengyun-1c-debris",
        "lat": -42.18791815933145,
        "lon": 137.2151288815684,
        "alt_km": 709.453624222474,
        "timestamp": "2025-12-19T04:59:48.583027+00:00",
        "meta_object_name": "FENGYUN 1C DEB",
        "meta_object_id": "1999-025AJK",
        "meta_epoch": "2025-12-18T20:57:41.096448",
        "meta_mean_motion": 14.58299121,
        "meta_eccentricity": 0.01357216,
        "meta_inclination": 98.9881,
        "meta_ra_of_asc_node": 128.6055,
        "meta_arg_of_pericenter": 224.9868,
        "meta_mean_anomaly": 134.0271,
        "meta_ephemeris_type": 0,
        "meta_classification_type": "U",
        "meta_norad_cat_id": 30521,
        "meta_element_set_no": 999,
        "meta_rev_at_epoch": 99671,
        "meta_bstar": 0.00064712447,
        "meta_mean_motion_dot": 3.337e-05,
        "meta_mean_motion_ddot": 0,
        "tle_line1": "1 30521U 99025AJK 25352.87339232  .00003337  00000+0  64712-3 0  9998",
        "tle_line2": "2 30521  98.9881 128.6055 0135721 224.9868 134.0271 14.58299121996713"
      },
      "geometry": {
        "type": "Point",
        "coordinates": [
          137.2151288815684,
          -42.18791815933145
        ]
      }
    },
    {
      "type": "Feature",
      "properties": {
        "norad_id": 30523,
        "name": "FENGYUN 1C DEB",
        "group": "fengyun-1c-debris",
        "lat": -59.625175882834284,
        "lon": 136.63094091099327,
        "alt_km": 958.1385359336409,
        "timestamp": "2025-12-19T04:59:48.583037+00:00",
        "meta_object_name": "FENGYUN 1C DEB",
        "meta_object_id": "1999-025AJM",
        "meta_epoch": "2025-12-18T21:18:16.007328",
        "meta_mean_motion": 14.27938013,
        "meta_eccentricity": 0.02441958,
        "meta_inclination": 98.4662,
        "meta_ra_of_asc_node": 331.0416,
        "meta_arg_of_pericenter": 90.5297,
        "meta_mean_anomaly": 302.06,
        "meta_ephemeris_type": 0,
        "meta_classification_type": "U",
        "meta_norad_cat_id": 30523,
        "meta_element_set_no": 999,
        "meta_rev_at_epoch": 98188,
        "meta_bstar": 0.00015763804,
        "meta_mean_motion_dot": 4.9e-06,
        "meta_mean_motion_ddot": 0,
        "tle_line1": "1 30523U 99025AJM 25352.88768527  .00000490  00000+0  15764-3 0  9994",
        "tle_line2": "2 30523  98.4662 331.0416 0244195  90.5297 302.0600 14.27938013981888"
      },
      "geometry": {
        "type": "Point",
        "coordinates": [
          136.63094091099327,
          -59.625175882834284
        ]
      }
    },
    {
      "type": "Feature",
      "properties": {
        "norad_id": 30524,
        "name": "FENGYUN 1C DEB",
        "group": "fengyun-1c-debris",
        "lat": 80.63410740302113,
        "lon": 81.5304203591656,
        "alt_km": 1034.6175009317567,
        "timestamp": "2025-12-19T04:59:48.583047+00:00",
        "meta_object_name": "FENGYUN 1C DEB",
        "meta_object_id": "1999-025AJN",
        "meta_epoch": "2025-12-16T11:00:51.821568",
        "meta_mean_motion": 13.92254836,
        "meta_eccentricity": 0.02078556,
        "meta_inclination": 99.3067,
        "meta_ra_of_asc_node": 162.5862,
        "meta_arg_of_pericenter": 240.3218,
        "meta_mean_anomaly": 117.7105,
        "meta_ephemeris_type": 0,
        "meta_classification_type": "U",
        "meta_norad_cat_id": 30524,
        "meta_element_set_no": 999,
        "meta_rev_at_epoch": 93937,
        "meta_bstar": 0.0039327007,
        "meta_mean_motion_dot": 5.976e-05,
        "meta_mean_motion_ddot": 0,
        "tle_line1": "1 30524U 99025AJN 25350.45893312  .00005976  00000+0  39327-2 0  9991",
        "tle_line2": "2 30524  99.3067 162.5862 0207855 240.3218 117.7105 13.92254836939373"
      },
      "geometry": {
        "type": "Point",
        "coordinates": [
          81.5304203591656,
          80.63410740302113
        ]
      }
    },
    {
      "type": "Feature",
      "properties": {
        "norad_id": 30525,
        "name": "FENGYUN 1C DEB",
        "group": "fengyun-1c-debris",
        "lat": -80.19840513587562,
        "lon": -3.669509937063584,
        "alt_km": 853.5616963515422,
        "timestamp": "2025-12-19T04:59:48.583057+00:00",
        "meta_object_name": "FENGYUN 1C DEB",
        "meta_object_id": "1999-025AJP",
        "meta_epoch": "2025-12-18T15:18:01.895616",
        "meta_mean_motion": 13.58621536,
        "meta_eccentricity": 0.02931758,
        "meta_inclination": 98.6028,
        "meta_ra_of_asc_node": 237.0204,
        "meta_arg_of_pericenter": 294.1589,
        "meta_mean_anomaly": 62.9159,
        "meta_ephemeris_type": 0,
        "meta_classification_type": "U",
        "meta_norad_cat_id": 30525,
        "meta_element_set_no": 999,
        "meta_rev_at_epoch": 93197,
        "meta_bstar": 0.0010827558,
        "meta_mean_motion_dot": 1.008e-05,
        "meta_mean_motion_ddot": 0,
        "tle_line1": "1 30525U 99025AJP 25352.63752194  .00001008  00000+0  10828-2 0  9993",
        "tle_line2": "2 30525  98.6028 237.0204 0293175 294.1589  62.9159 13.58621536931974"
      },
      "geometry": {
        "type": "Point",
        "coordinates": [
          -3.669509937063584,
          -80.19840513587562
        ]
      }
    },
    {
      "type": "Feature",
      "properties": {
        "norad_id": 30526,
        "name": "FENGYUN 1C DEB",
        "group": "fengyun-1c-debris",
        "lat": 52.66037880865734,
        "lon": 62.46946705020053,
        "alt_km": 1288.0203429195435,
        "timestamp": "2025-12-19T04:59:48.583078+00:00",
        "meta_object_name": "FENGYUN 1C DEB",
        "meta_object_id": "1999-025AJQ",
        "meta_epoch": "2025-12-18T16:16:05.246400",
        "meta_mean_motion": 13.4991885,
        "meta_eccentricity": 0.03066867,
        "meta_inclination": 99.5472,
        "meta_ra_of_asc_node": 74.7045,
        "meta_arg_of_pericenter": 249.9099,
        "meta_mean_anomaly": 106.879,
        "meta_ephemeris_type": 0,
        "meta_classification_type": "U",
        "meta_norad_cat_id": 30526,
        "meta_element_set_no": 999,
        "meta_rev_at_epoch": 92738,
        "meta_bstar": 0.0011342218,
        "meta_mean_motion_dot": 9.2e-06,
        "meta_mean_motion_ddot": 0,
        "tle_line1": "1 30526U 99025AJQ 25352.67783850  .00000920  00000+0  11342-2 0  9995",
        "tle_line2": "2 30526  99.5472  74.7045 0306686 249.9099 106.8790 13.49918850927380"
      },
      "geometry": {
        "type": "Point",
        "coordinates": [
          62.46946705020053,
          52.66037880865734
        ]
      }
    }
  ]
}